1 45532U 20025B   22365.51206467  .00005444  00000-0  38393-3 0  9993
2 45532  53.0511 292.8233 0001218  93.2654 266.8475 15.06413467149623
1 45532U 20025B   23001.04284267  .00001190  00000-0  98734-4 0  9993
2 45532  53.0512 290.4411 0001166 106.8537 253.2580 15.06403331149120
1 45532U 20025B   23001.50728150 -.00004709  00000-0 -29755-3 0  9995
2 45532  53.0517 288.3566 0001391 101.0391 259.0754 15.06383052149772
1 45532U 20025B   23001.77267635 -.00002380  00000-0 -14098-3 0  9997
2 45532  53.0520 287.1639 0001198 101.6495 258.4628 15.06388711149815
1 45532U 20025B   23001.77267635 -.00002380  00000-0 -14098-3 0  9997
2 45532  53.0520 287.1639 0001198 101.6495 258.4628 15.06388711149231
1 45532U 20025B   23002.03805856 -.00002483  00000-0 -14784-3 0  9996
2 45532  53.0519 285.9745 0001290 102.3426 257.7707 15.06397406149273
1 45532U 20025B   23002.50247560 -.00000392  00000-0 -74479-5 0  9996
2 45532  53.0523 283.8892 0001422 102.4835 257.6313 15.06406727149921
1 45532U 20025B   23002.50247560 -.00000392  00000-0 -74479-5 0  9996
2 45532  53.0523 283.8892 0001422 102.4835 257.6313 15.06406727149347
1 45532U 20025B   23002.76786940  .00000227  00000-0  34157-4 0  9997
2 45532  53.0522 282.6984 0001466 105.5712 254.5438 15.06393997149967
1 45532U 20025B   23002.76786940  .00000227  00000-0  34157-4 0  9997
2 45532  53.0522 282.6984 0001466 105.5712 254.5438 15.06393997149383
1 45532U 20025B   23003.49769281  .00001506  00000-0  12001-3 0  9991
2 45532  53.0520 279.4201 0001614 104.6832 255.4336 15.06383288150072
1 45532U 20025B   23004.16115640  .00001278  00000-0  10466-3 0  9999
2 45532  53.0517 276.4414 0001615 106.4248 253.6919 15.06396769150179
1 45532U 20025B   23004.16115640  .00001278  00000-0  10466-3 0  9999
2 45532  53.0517 276.4414 0001615 106.4248 253.6919 15.06396769149593
1 45532U 20025B   23004.82461587  .00001959  00000-0  15038-3 0  9992
2 45532  53.0517 273.4632 0001523 109.1679 250.9475 15.06405586150270
1 45532U 20025B   23004.82461587  .00001959  00000-0  15038-3 0  9992
2 45532  53.0517 273.4632 0001523 109.1679 250.9475 15.06405586149694
1 45532U 20025B   23005.42173419  .00001707  00000-0  13344-3 0  9992
2 45532  53.0513 270.7819 0001381 104.6334 255.4808 15.06407519150361
1 45532U 20025B   23005.75346889  .00001301  00000-0  10624-3 0  9999
2 45532  53.0518 269.2924 0001537 114.4752 245.6397 15.06405191150416
1 45532U 20025B   23006.41695538 -.00002254  00000-0 -13250-3 0  9999
2 45532  53.0521 266.3138 0001483 107.6115 252.5036 15.06387117149931
1 45532U 20025B   23006.68234236 -.00002350  00000-0 -13899-3 0  9998
2 45532  53.0514 265.1210 0001396 107.4385 252.6757 15.06388891150552
1 45532U 20025B   23007.14675857 -.00000899  00000-0 -41444-4 0  9992
2 45532  53.0515 263.0378 0001349 105.9183 254.1955 15.06403398150627
1 45532U 20025B   23007.14675857 -.00000899  00000-0 -41444-4 0  9992
2 45532  53.0515 263.0378 0001349 105.9183 254.1955 15.06403398150043
1 45532U 20025B   23008.67275213  .00000829  00000-0  74555-4 0  9993
2 45532  53.0498 256.1870 0001497 109.1132 251.0020 15.06386069150276
1 45532U 20025B   23008.93813463  .00001569  00000-0  12424-3 0  9995
2 45532  53.0495 254.9945 0001319 121.8237 238.2880 15.06393222150890
1 45532U 20025B   23008.93813463  .00001569  00000-0  12424-3 0  9995
2 45532  53.0495 254.9945 0001319 121.8237 238.2880 15.06393222150317
1 45532U 20025B   23009.40255701  .00001438  00000-0  11537-3 0  9992
2 45532  53.0498 252.9088 0001251 119.5186 240.5928 15.06402658150962
1 45532U 20025B   23009.40255701  .00001438  00000-0  11537-3 0  9992
2 45532  53.0498 252.9088 0001251 119.5186 240.5928 15.06402658150388
1 45532U 20025B   23009.66795093  .00002101  00000-0  15995-3 0  9993
2 45532  53.0513 251.7189 0001537 124.1581 235.9554 15.06393805150424
1 45532U 20025B   23009.93334461  .00000684  00000-0  64830-4 0  9998
2 45532  53.0522 250.5309 0001346 100.8727 259.2414 15.06390976151045
1 45532U 20025B   23010.06603965  .00002120  00000-0  16125-3 0  9992
2 45532  53.0509 249.9346 0001382  98.5492 261.5653 15.06385327151062
1 45532U 20025B   23010.06603965  .00002120  00000-0  16125-3 0  9992
2 45532  53.0509 249.9346 0001382  98.5492 261.5653 15.06385327150487
1 45532U 20025B   23011.59201752  .00000817  00000-0  73770-4 0  9990
2 45532  53.0522 243.0804 0001478 114.5556 245.5587 15.06392934151292
1 45532U 20025B   23011.65836354  .00000929  00000-0  81288-4 0  9996
2 45532  53.0514 242.7839 0001383 108.1771 251.9369 15.06393874150720
1 45532U 20025B   23011.92373580 -.00001639  00000-0 -91108-4 0  9996
2 45532  53.0486 241.5912 0001672 110.1269 249.9900 15.06419964151349
1 45532U 20025B   23012.05643756  .00002551  00000-0  19011-3 0  9990
2 45532  53.0503 240.9967 0001537 113.6038 246.5113 15.06402858150784
1 45532U 20025B   23012.32182883  .00002884  00000-0  21245-3 0  9990
2 45532  53.0494 239.8043 0001346 114.5049 245.6081 15.06397855150824
1 45532U 20025B   23012.91894056  .00004411  00000-0  31485-3 0  9992
2 45532  53.0505 237.1228 0002176 115.0671 245.0544 15.06400127151491
1 45532U 20025B   23012.91894056  .00004411  00000-0  31485-3 0  9992
2 45532  53.0505 237.1228 0002176 115.0671 245.0544 15.06400127150917
1 45532U 20025B   23013.31702475 -.00000885  00000-0 -40528-4 0  9992
2 45532  53.0514 235.3364 0001240 107.0485 253.0640 15.06405693151553
1 45532U 20025B   23013.98050894 -.00004348  00000-0 -27329-3 0  9997
2 45532  53.0490 232.3570 0001269 101.7500 258.3631 15.06382461151074
1 45532U 20025B   23014.84301935  .00001781  00000-0  13845-3 0  9992
2 45532  53.0503 228.4855 0001147 111.5777 248.5334 15.06390829151204
1 45532U 20025B   23015.57284017  .00007115  00000-0  49610-3 0  9990
2 45532  53.0485 225.2080 0001224 105.3954 254.7170 15.06397797151895
1 45532U 20025B   23015.83822668  .00007490  00000-0  52115-3 0  9999
2 45532  53.0492 224.0167 0001286 101.9068 258.2065 15.06402998151939
1 45532U 20025B   23016.30265539  .00003358  00000-0  24421-3 0  9998
2 45532  53.0491 221.9324 0001150  96.6063 263.5057 15.06399403151424
1 45532U 20025B   23016.56804358  .00001808  00000-0  14023-3 0  9999
2 45532  53.0485 220.7413 0001334  95.2719 264.8422 15.06398455152045
1 45532U 20025B   23016.83343497  .00001720  00000-0  13437-3 0  9992
2 45532  53.0496 219.5493 0001215  99.3138 260.7988 15.06391659152084
1 45532U 20025B   23016.83343497  .00001720  00000-0  13437-3 0  9992
2 45532  53.0496 219.5493 0001215  99.3138 260.7988 15.06391659151500
1 45532U 20025B   23017.56324844  .00000564  00000-0  56745-4 0  9993
2 45532  53.0496 216.2723 0001308  96.8929 263.2209 15.06396679152190
1 45532U 20025B   23017.82863453  .00001473  00000-0  11775-3 0  9999
2 45532  53.0496 215.0814 0001198  94.4586 265.6540 15.06398867152238
1 45532U 20025B   23017.96132582  .00000442  00000-0  48594-4 0  9991
2 45532  53.0506 214.4855 0001317 100.2514 259.8624 15.06402052151675
1 45532U 20025B   23018.55849668 -.00004441  00000-0 -27985-3 0  9992
2 45532  53.0505 211.8047 0001310  95.6244 264.4894 15.06347834152340
1 45532U 20025B   23018.82388935 -.00003937  00000-0 -24591-3 0  9996
2 45532  53.0509 210.6133 0001358  95.1838 264.9306 15.06349996152381
1 45532U 20025B   23018.82388935 -.00003937  00000-0 -24591-3 0  9996
2 45532  53.0509 210.6133 0001358  95.1838 264.9306 15.06349996151807
1 45532U 20025B   23019.48732905  .00002393  00000-0  17947-3 0  9999
2 45532  53.0498 207.6344 0001361  87.3686 272.7458 15.06396760151909
1 45532U 20025B   23019.55368375  .00000501  00000-0  52539-4 0  9999
2 45532  53.0504 207.3351 0000790  83.6536 276.4543 15.06388633152491
1 45532U 20025B   23020.21714819  .00005754  00000-0  40483-3 0  9991
2 45532  53.0507 204.3580 0001487  86.3423 273.7736 15.06403496152594
1 45532U 20025B   23020.81426993  .00011214  00000-0  77038-3 0  9994
2 45532  53.0509 201.6773 0001540  87.9050 272.2116 15.06407806152105
1 45532U 20025B   23021.87580119  .00001268  00000-0  10398-3 0  9996
2 45532  53.0501 196.9107 0001498  85.7892 274.3268 15.06419543152265
1 45532U 20025B   23022.87099307 -.00000362  00000-0 -54114-5 0  9993
2 45532  53.0515 192.4436 0001477  89.1747 270.9411 15.06419459152415
1 45532U 20025B   23023.46812193 -.00000789  00000-0 -34057-4 0  9991
2 45532  53.0518 189.7621 0001489  89.7625 270.3534 15.06400501152505
1 45532U 20025B   23024.72870612 -.00000004  00000-0  18651-4 0  9992
2 45532  53.0527 184.1035 0001348  82.5407 277.5735 15.06402178152690
1 45532U 20025B   23025.59122370  .00000180  00000-0  30985-4 0  9997
2 45532  53.0530 180.2318 0001320  77.7841 282.3296 15.06389865153406
1 45532U 20025B   23025.72391328  .00000803  00000-0  72823-4 0  9992
2 45532  53.0528 179.6363 0001284  79.1460 280.9673 15.06394863153426
1 45532U 20025B   23025.72391328  .00000803  00000-0  72823-4 0  9992
2 45532  53.0528 179.6363 0001284  79.1460 280.9673 15.06394863152841
1 45532U 20025B   23026.58642524  .00002672  00000-0  19826-3 0  9993
2 45532  53.0522 175.7649 0001336  85.9178 274.1964 15.06386230153554
1 45532U 20025B   23027.38255485  .00003972  00000-0  28523-3 0  9996
2 45532  53.0526 172.1907 0001040  89.7850 270.3258 15.06420271153094
1 45532U 20025B   23027.58163453 -.00002134  00000-0 -12453-3 0  9997
2 45532  53.0528 171.2973 0001306  79.1397 280.9739 15.06375426153703
1 45532U 20025B   23027.71432671 -.00002335  00000-0 -13800-3 0  9993
2 45532  53.0532 170.7011 0001397  72.9757 287.1384 15.06380933153722
1 45532U 20025B   23027.71432671 -.00002335  00000-0 -13800-3 0  9993
2 45532  53.0532 170.7011 0001397  72.9757 287.1384 15.06380933153148
1 45532U 20025B   23028.37779336 -.00002143  00000-0 -12505-3 0  9996
2 45532  53.0535 167.7205 0001252  91.1296 268.9837 15.06388990153245
1 45532U 20025B   23028.57682889 -.00001090  00000-0 -54306-4 0  9990
2 45532  53.0533 166.8283 0001311  83.8203 276.2935 15.06393696153858
1 45532U 20025B   23028.77586588 -.00000816  00000-0 -35922-4 0  9999
2 45532  53.0533 165.9340 0001277  81.9185 278.1949 15.06398659153884
1 45532U 20025B   23028.77586588 -.00000816  00000-0 -35922-4 0  9999
2 45532  53.0533 165.9340 0001277  81.9185 278.1949 15.06398659153301
1 45532U 20025B   23029.10757976 -.00012608  00000-0 -82789-3 0  9992
2 45532  53.0533 164.4451 0001377 146.7476 213.3600 15.06449968153352
1 45532U 20025B   23029.77107025  .00003336  00000-0  24285-3 0  9992
2 45532  53.0534 161.4663 0001365  96.9235 263.1910 15.06387368153454
1 45532U 20025B   23029.83741508  .00003882  00000-0  27946-3 0  9992
2 45532  53.0535 161.1688 0001353  96.2726 263.8417 15.06390796154048
1 45532U 20025B   23030.36820143  .00000907  00000-0  79776-4 0  9999
2 45532  53.0533 158.7858 0001326 103.8588 256.2548 15.06385004153549
1 45532U 20025B   23030.50089514  .00000900  00000-0  79358-4 0  9993
2 45532  53.0533 158.1900 0001349 104.8317 255.2822 15.06386076154148
1 45532U 20025B   23031.29705352  .00001257  00000-0  10326-3 0  9990
2 45532  53.0542 154.6193 0001211  81.3647 278.7479 15.06396073153680
1 45532U 20025B   23031.49609381  .00000955  00000-0  83022-4 0  9995
2 45532  53.0538 153.7235 0001296  98.9265 261.1870 15.06397275154299
